SL-14 R/B               
1 20511U 90018B   26159.43782826  .00000401  00000+0  47288-4 0  9997
2 20511  82.5204 138.2856 0016881 148.7739 211.4482 14.82210533936029
HST                     
1 20580U 90037B   26158.29828937  .00006010  00000+0  18954-3 0  9990
2 20580  28.4712 148.1547 0001938  44.7656 315.3096 15.30642118787059
SL-16 R/B               
1 20625U 90046B   26159.18244839  .00000303  00000+0  18107-3 0  9991
2 20625  70.9982 107.8591 0014077 175.3297 184.7960 14.15021434861191
COSMOS 2084             
1 20663U 90055A   26159.36377289  .00002094  00000+0  15631-3 0  9997
2 20663  62.7910  26.2058 0005532 262.5784  97.4688 15.06080231949972
SL-6 R/B(2)             
1 20666U 90055D   26159.47238803  .00001841  00000+0  14521-3 0  9996
2 20666  62.7838 305.0312 0039270   3.9642 356.1761 15.03974690951845
SL-8 R/B                
1 20775U 90078B   26159.47753771  .00014745  00000+0  41476-3 0  9994
2 20775  82.9014 169.5116 0352799  67.7732 296.0510 14.91986864822824
SL-8 R/B                
1 21088U 91006B   26159.35870071  .00000050  00000+0  34411-4 0  9990
2 21088  82.9420 102.6010 0023307 138.1221 341.0838 13.77505257776558
OKEAN-3                 
1 21397U 91039A   26159.49707461  .00002074  00000+0  14283-3 0  9998
2 21397  82.5163 248.8079 0014588  28.5196 331.6826 15.05288338878694
COSMOS 2151             
1 21422U 91042A   26159.52346497  .00001466  00000+0  11432-3 0  9990
2 21422  82.4961 356.0428 0013734 109.8593 250.4112 15.00414423876813
SL-14 R/B               
1 21423U 91042B   26159.44252733  .00000404  00000+0  48082-4 0  9994
2 21423  82.4921 135.0961 0015711 306.3317  53.6446 14.81897004866519
ERS-1                   
1 21574U 91050A   26159.47636287  .00000263  00000+0  98775-4 0  9990
2 21574  98.7799 179.9615 0030782 293.8624  65.9338 14.39511686828794
ARIANE 40 R/B           
1 21610U 91050F   26159.10380479  .00000321  00000+0  10826-3 0  9995
2 21610  98.1879 207.8742 0003851 141.2771 218.8697 14.42952012832031
INTERCOSMOS 25          
1 21819U 91086A   26159.52821740  .00000617  00000+0  12285-3 0  9991
2 21819  82.6054 255.0492 1484342 281.0906  62.7287 12.12186290507698
SL-8 R/B                
1 21876U 92008B   26159.48352639  .00000077  00000+0  63319-4 0  9995
2 21876  82.9267 200.2588 0033416 239.7914 235.6476 13.75974516721907
SL-8 R/B                
1 21938U 92020B   26159.33675829  .00000056  00000+0  42149-4 0  9996
2 21938  82.9304  86.4308 0030208  46.5579  71.0326 13.75548014713591
USA 81                  
1 21949U 92023A   26159.47295556  .00000183  00000+0  60169-4 0  9994
2 21949  85.0077  79.0366 0002739  92.4759 267.6747 14.32395958107783
COSMOS 2219             
1 22219U 92076A   26159.48988318 -.00000012  00000+0  18351-4 0  9997
2 22219  71.0576 188.2541 0016188  58.3494 301.9205 14.14095583731214
SL-16 R/B               
1 22220U 92076B   26159.00323513 -.00000203  00000+0 -76975-4 0  9996
2 22220  71.0007 358.1286 0014450 310.6399 161.6193 14.16872143734629
COSMOS 2221             
1 22236U 92080A   26159.51363656  .00001510  00000+0  13046-3 0  9995
2 22236  82.5034 192.0746 0012691 244.1747 115.8167 14.96512343794373
SL-16 R/B               
1 22285U 92093B   26159.47943455 -.00000131  00000+0 -42489-4 0  9993
2 22285  71.0201 173.6716 0004437 200.9199 159.1743 14.15464758726001
COSMOS 2228             
1 22286U 92094A   26159.46836772  .00002078  00000+0  17535-3 0  9990
2 22286  82.5170 150.3942 0017742   2.3423 357.7879 14.97556052789648
SL-16 R/B               
1 22566U 93016B   26159.03452178  .00000088  00000+0  69830-4 0  9998
2 22566  71.0079  25.4318 0010834 196.7781 163.2985 14.15308871714953
COSMOS 2242             
1 22626U 93024A   26159.49069615  .00001722  00000+0  14756-3 0  9996
2 22626  82.5179 179.8631 0016220   6.1082 354.0335 14.96878418793979
SL-16 R/B               
1 22803U 93059B   26159.45562641  .00000229  00000+0  13704-3 0  9997
2 22803  70.9882 179.7172 0014998  69.2109 291.0619 14.17244538692399
ARIANE 40 R/B           
1 22830U 93061H   26159.47686676  .00000197  00000+0  88025-4 0  9990
2 22830  98.4820 226.5146 0011019  22.0408 338.1248 14.32904330707105
COSMOS 2278             
1 23087U 94023A   26158.91150778  .00000388  00000+0  22703-3 0  9993
2 23087  71.0541 346.3332 0010603 253.7139 106.2817 14.14392657657560
SL-16 R/B               
1 23088U 94023B   26159.48292802  .00000198  00000+0  12663-3 0  9995
2 23088  70.9995 240.2108 0003331 195.7904 164.3115 14.15019606658939
SL-16 R/B               
1 23343U 94074B   26159.08500120  .00000465  00000+0  68745-4 0  9996
2 23343  97.6994 186.1848 0005180 291.9630 131.0433 14.79494909700616
SL-16 R/B               
1 23405U 94077B   26159.42907617 -.00000278  00000+0 -11761-3 0  9997
2 23405  70.9805 161.5883 0002640 332.6283  27.4700 14.15573328629079
ARIANE 40+ R/B          
1 23561U 95021B   26159.42833080  .00000259  00000+0  96380-4 0  9990
2 23561  98.4412 229.6296 0005900 221.9225 153.0518 14.39828661632305
SL-16 R/B               
1 23705U 95058B   26159.51111905 -.00000060  00000+0 -64656-5 0  9999
2 23705  71.0215 349.5751 0013410 332.2055  27.8350 14.15505187580700
