OBJECT_NAME,OBJECT_ID,EPOCH,MEAN_MOTION,ECCENTRICITY,INCLINATION,RA_OF_ASC_NODE,ARG_OF_PERICENTER,MEAN_ANOMALY,EPHEMERIS_TYPE,CLASSIFICATION_TYPE,NORAD_CAT_ID,ELEMENT_SET_NO,REV_AT_EPOCH,BSTAR,MEAN_MOTION_DOT,MEAN_MOTION_DDOT
SL-14 R/B,1990-018B,2026-06-08T10:30:28.361664,14.82210533,.0016881,82.5204,138.2856,148.7739,211.4482,0,U,20511,999,93602,.47288E-4,.401E-5,0
HST,1990-037B,2026-06-07T07:09:32.201568,15.30642118,.0001938,28.4712,148.1547,44.7656,315.3096,0,U,20580,999,78705,.18954E-3,.601E-4,0
SL-16 R/B,1990-046B,2026-06-08T04:22:43.540896,14.15021434,.0014077,70.9982,107.8591,175.3297,184.7960,0,U,20625,999,86119,.18107E-3,.303E-5,0
COSMOS 2084,1990-055A,2026-06-08T08:43:49.977696,15.06080231,.0005532,62.7910,26.2058,262.5784,97.4688,0,U,20663,999,94997,.15631E-3,.2094E-4,0
SL-6 R/B(2),1990-055D,2026-06-08T11:20:14.325792,15.03974690,.003927,62.7838,305.0312,3.9642,356.1761,0,U,20666,999,95184,.14521E-3,.1841E-4,0
SL-8 R/B,1990-078B,2026-06-08T11:27:39.258144,14.91986864,.0352799,82.9014,169.5116,67.7732,296.0510,0,U,20775,999,82282,.41476E-3,.14745E-3,0
SL-8 R/B,1991-006B,2026-06-08T08:36:31.741344,13.77505257,.0023307,82.9420,102.6010,138.1221,341.0838,0,U,21088,999,77655,.34411E-4,.5E-6,0
OKEAN-3,1991-039A,2026-06-08T11:55:47.246304,15.05288338,.0014588,82.5163,248.8079,28.5196,331.6826,0,U,21397,999,87869,.14283E-3,.2074E-4,0
COSMOS 2151,1991-042A,2026-06-08T12:33:47.373408,15.00414423,.0013734,82.4961,356.0428,109.8593,250.4112,0,U,21422,999,87681,.11432E-3,.1466E-4,0
SL-14 R/B,1991-042B,2026-06-08T10:37:14.361312,14.81897004,.0015711,82.4921,135.0961,306.3317,53.6446,0,U,21423,999,86651,.48082E-4,.404E-5,0
ERS-1,1991-050A,2026-06-08T11:25:57.751968,14.39511686,.0030782,98.7799,179.9615,293.8624,65.9338,0,U,21574,999,82879,.98775E-4,.263E-5,0
ARIANE 40 R/B,1991-050F,2026-06-08T02:29:28.733856,14.42952012,.00038516,98.1879,207.8742,141.2771,218.8697,0,U,21610,999,83203,.10825775E-3,.321E-5,0
INTERCOSMOS 25,1991-086A,2026-06-08T12:40:37.983360,12.12186290,.1484342,82.6054,255.0492,281.0906,62.7287,0,U,21819,999,50769,.12285E-3,.617E-5,0
SL-8 R/B,1992-008B,2026-06-08T11:36:16.680096,13.75974516,.0033416,82.9267,200.2588,239.7914,235.6476,0,U,21876,999,72190,.63319E-4,.77E-6,0
SL-8 R/B,1992-020B,2026-06-08T08:04:55.916256,13.75548014,.0030208,82.9304,86.4308,46.5579,71.0326,0,U,21938,999,71359,.42149E-4,.56E-6,0
USA 81,1992-023A,2026-06-08T11:21:03.360384,14.32395958,.0002739,85.0077,79.0366,92.4759,267.6747,0,U,21949,999,10778,.60169E-4,.183E-5,0
COSMOS 2219,1992-076A,2026-06-08T11:45:25.906752,14.14095583,.0016188,71.0576,188.2541,58.3494,301.9205,0,U,22219,999,73121,.18351E-4,-.12E-6,0
SL-16 R/B,1992-076B,2026-06-08T00:04:39.515232,14.16872143,.00144505,71.0007,358.1286,310.6399,161.6193,0,U,22220,999,73462,-.76975134E-4,-.203E-5,0
COSMOS 2221,1992-080A,2026-06-08T12:19:38.198784,14.96512343,.0012691,82.5034,192.0746,244.1747,115.8167,0,U,22236,999,79437,.13046E-3,.151E-4,0
SL-16 R/B,1992-093B,2026-06-08T11:30:23.145120,14.15464758,.0004437,71.0201,173.6716,200.9199,159.1743,0,U,22285,999,72600,-.42489E-4,-.131E-5,0
COSMOS 2228,1992-094A,2026-06-08T11:14:26.971008,14.97556052,.0017742,82.5170,150.3942,2.3423,357.7879,0,U,22286,999,78964,.17535E-3,.2078E-4,0
SL-16 R/B,1993-016B,2026-06-08T00:49:42.681792,14.15308871,.00108346,71.0079,25.4318,196.7781,163.2985,0,U,22566,999,71495,.69830065E-4,.88E-6,0
COSMOS 2242,1993-024A,2026-06-08T11:46:36.147360,14.96878418,.001622,82.5179,179.8631,6.1082,354.0335,0,U,22626,999,79397,.14756E-3,.1722E-4,0
SL-16 R/B,1993-059B,2026-06-08T10:56:06.121824,14.17244538,.0014998,70.9882,179.7172,69.2109,291.0619,0,U,22803,999,69239,.13704E-3,.229E-5,0
ARIANE 40 R/B,1993-061H,2026-06-08T11:26:41.288064,14.32904330,.0011019,98.4820,226.5146,22.0408,338.1248,0,U,22830,999,70710,.88025E-4,.197E-5,0
COSMOS 2278,1994-023A,2026-06-07T21:52:34.272192,14.14392657,.00106032,71.0541,346.3332,253.7139,106.2817,0,U,23087,999,65756,.22702733E-3,.388E-5,0
SL-16 R/B,1994-023B,2026-06-08T11:35:24.980928,14.15019606,.0003331,70.9995,240.2108,195.7904,164.3115,0,U,23088,999,65893,.12663E-3,.198E-5,0
SL-16 R/B,1994-074B,2026-06-08T02:02:24.103680,14.79494909,.00051806,97.6994,186.1848,291.9630,131.0433,0,U,23343,999,70061,.6874478E-4,.465E-5,0
SL-16 R/B,1994-077B,2026-06-08T10:17:52.181088,14.15573328,.000264,70.9805,161.5883,332.6283,27.4700,0,U,23405,999,62907,-.11761E-3,-.278E-5,0
ARIANE 40+ R/B,1995-021B,2026-06-08T10:16:47.781120,14.39828661,.00059,98.4412,229.6296,221.9225,153.0518,0,U,23561,999,63230,.9638E-4,.259E-5,0
SL-16 R/B,1995-058B,2026-06-08T12:16:00.685920,14.15505187,.001341,71.0215,349.5751,332.2055,27.8350,0,U,23705,999,58070,-.64656E-5,-.6E-6,0
